STARLINK-30875          
1 58224U 23170U   26068.37231528  .00000142  00000+0  14947-4 0  9992
2 58224  42.9974 195.7665 0000354 217.8694 142.2133 15.26737349130250
FLOCK 4G-4              
1 62659U 25009BC  26068.75333732  .00011866  00000+0  45294-3 0  9997
2 62659  97.3994 150.7963 0001598 343.4316  16.6870 15.26803327121323
